{
"type": "FeatureCollection",
"name": "property_CT",
"crs": { "type": "name", "properties": { "name": "urn:ogc:def:crs:EPSG::2272" } },
"features": [
{ "type": "Feature", "properties": { "basements": "D", "beginning_point": "8' E RIDGE AVE", "zoning": "RMX3", "location": "913 WOOD ST", "adj_sale_price": 12.395866721058306, "sale_price": 10, "book_and_page": "53937518", "building_code": "U70  ", "building_code_description": "ROW CONV/APT 4 STY MASON", "category_code": "2 ", "category_code_description": "MULTI FAMILY", "census_tract": "376", "central_air": "N", "cross_reference": null, "date_exterior_condition": null, "depth": 77, "exempt_building": 100000.0, "exempt_land": 0.0, "exterior_condition": "3", "fireplaces": 0, "frontage": 17.0, "fuel": null, "garage_spaces": 0, "garage_type": null, "general_construction": "A ", "geographic_ward": "5 ", "homestead_exemption": 100000, "house_extension": null, "house_number": "913  ", "interior_condition": "3", "mailing_address_1": "SIMPLIFILE LC E-RECORDING", "mailing_care_of": null, "mailing_city_state": "PHILADELPHIA PA", "mailing_street": "913 WOOD ST", "mailing_zip": "19107-1405", "market_value": 780900, "market_value_date": null, "number_of_bathrooms": 0, "number_of_bedrooms": 0, "number_of_rooms": null, "number_stories": 4, "off_street_open": 572, "owner_1": "LIN XUN D", "owner_2": "HUANG ZHAOSHEN", "parcel_number": "056030605", "parcel_shape": "E", "quality_grade": "A ", "registry_number": "002N220052", "sale_date": "2021-06-04", "separate_utilities": "A", "sewer": null, "site_type": null, "street_code": "84320", "street_designation": "ST  ", "street_direction": null, "street_name": "WOOD", "suffix": null, "taxable_building": 524800.0, "taxable_land": 156100.0, "topography": "F", "total_area": 1305, "total_livable_area": 3760, "type_heater": "B", "unfinished": null, "unit": null, "utility": null, "view_type": "I", "year_built": 1925.0, "year_built_estimate": "Y", "zip_code": "19107", "pin": 1001574874, "building_code_new": "31", "building_code_description_new": "TWIN CONTEMPORARY", "objectid": 587070563, "FID": 0.0, "CPI": 274.552, "I676_NS": "north" }, "geometry": { "type": "Point", "coordinates": [ 2696073.810539879836142, 238174.04266628617188 ] } },
{ "type": "Feature", "properties": { "basements": null, "beginning_point": "170.00' S CALLOWHILL ST", "zoning": "RM4", "location": "306 N 8TH ST", "adj_sale_price": 12.04344872003567, "sale_price": 10, "book_and_page": "53888982", "building_code": "O20  ", "building_code_description": "ROW 1.5 STY MASONRY", "category_code": "1 ", "category_code_description": "SINGLE FAMILY", "census_tract": "376", "central_air": "Y", "cross_reference": null, "date_exterior_condition": null, "depth": 56, "exempt_building": 100000.0, "exempt_land": 0.0, "exterior_condition": "4", "fireplaces": 0, "frontage": 22.0, "fuel": "A", "garage_spaces": 0, "garage_type": null, "general_construction": "A ", "geographic_ward": "5 ", "homestead_exemption": 100000, "house_extension": null, "house_number": "306  ", "interior_condition": "4", "mailing_address_1": null, "mailing_care_of": null, "mailing_city_state": "PHILADELPHIA PA", "mailing_street": "306 N 8TH ST UNIT A", "mailing_zip": "19107-1834", "market_value": 244600, "market_value_date": null, "number_of_bathrooms": 1, "number_of_bedrooms": 0, "number_of_rooms": null, "number_stories": 1, "off_street_open": 734, "owner_1": "IU SUI MING", "owner_2": "IU KEVIN LOUNG-WAI", "parcel_number": "056287005", "parcel_shape": "E", "quality_grade": "C ", "registry_number": "002N21 0313", "sale_date": "2021-09-09", "separate_utilities": null, "sewer": null, "site_type": null, "street_code": "87950", "street_designation": "ST  ", "street_direction": "N", "street_name": "8TH", "suffix": null, "taxable_building": 95680.0, "taxable_land": 48920.0, "topography": "F", "total_area": 1207, "total_livable_area": 1275, "type_heater": "B", "unfinished": null, "unit": "A", "utility": null, "view_type": "I", "year_built": 1997.0, "year_built_estimate": null, "zip_code": "19107", "pin": 1001604076, "building_code_new": "08", "building_code_description_new": null, "objectid": 587080167, "FID": 0.0, "CPI": 282.586, "I676_NS": "north" }, "geometry": { "type": "Point", "coordinates": [ 2696519.574550169054419, 238179.499654542654753 ] } },
{ "type": "Feature", "properties": { "basements": null, "beginning_point": "48' W OF 13TH ST", "zoning": "CMX4", "location": "1306 CALLOWHILL ST", "adj_sale_price": 12.533319093617539, "sale_price": 10, "book_and_page": "53793989", "building_code": "RE   ", "building_code_description": "PD PKG LOT COMMERCIAL", "category_code": "14", "category_code_description": "APARTMENTS  > 4 UNITS", "census_tract": "376", "central_air": null, "cross_reference": null, "date_exterior_condition": null, "depth": 260, "exempt_building": 39838770.0, "exempt_land": 0.0, "exterior_condition": "1", "fireplaces": null, "frontage": 145.0, "fuel": null, "garage_spaces": null, "garage_type": null, "general_construction": "B ", "geographic_ward": "5 ", "homestead_exemption": 0, "house_extension": null, "house_number": "1306 ", "interior_condition": "1", "mailing_address_1": "121 S BROAD ST   STE 1310", "mailing_care_of": "PARKWAY CORP", "mailing_city_state": "PHILADELPHIA PA", "mailing_street": null, "mailing_zip": "19103", "market_value": 44265300, "market_value_date": null, "number_of_bathrooms": null, "number_of_bedrooms": null, "number_of_rooms": null, "number_stories": 7, "off_street_open": null, "owner_1": "LLCP CALLOWHILL LLC", "owner_2": null, "parcel_number": "881000009", "parcel_shape": "B", "quality_grade": "A ", "registry_number": "002N240350", "sale_date": "2020-12-03", "separate_utilities": null, "sewer": null, "site_type": null, "street_code": "20880", "street_designation": "ST  ", "street_direction": null, "street_name": "CALLOWHILL", "suffix": null, "taxable_building": 0.0, "taxable_land": 4426530.0, "topography": "F", "total_area": 145, "total_livable_area": 229400, "type_heater": null, "unfinished": null, "unit": null, "utility": null, "view_type": "I", "year_built": 2021.0, "year_built_estimate": null, "zip_code": "19123", "pin": 1001677437, "building_code_new": "830", "building_code_description_new": "APARTMENTS - MID RISE", "objectid": 587096243, "FID": 0.0, "CPI": 271.541, "I676_NS": "north" }, "geometry": { "type": "Point", "coordinates": [ 2694255.466187298763543, 238619.199381938087754 ] } },
{ "type": "Feature", "properties": { "basements": null, "beginning_point": "SWC GREEN ST", "zoning": "CMX1", "location": "548 N 12TH ST", "adj_sale_price": 12.657403516079723, "sale_price": 10, "book_and_page": "53562703", "building_code": "S50  ", "building_code_description": "ROW W/OFF STR 3 STY MASON", "category_code": "3 ", "category_code_description": "MIXED USE", "census_tract": "376", "central_air": null, "cross_reference": null, "date_exterior_condition": null, "depth": 70, "exempt_building": 100000.0, "exempt_land": 0.0, "exterior_condition": "5", "fireplaces": null, "frontage": 18.0, "fuel": null, "garage_spaces": null, "garage_type": null, "general_construction": "A ", "geographic_ward": "14", "homestead_exemption": 100000, "house_extension": null, "house_number": "548  ", "interior_condition": "5", "mailing_address_1": null, "mailing_care_of": null, "mailing_city_state": "PHILADELPHIA PA", "mailing_street": "548 N 12TH ST", "mailing_zip": "19123-3333", "market_value": 475800, "market_value_date": null, "number_of_bathrooms": null, "number_of_bedrooms": null, "number_of_rooms": null, "number_stories": null, "off_street_open": 484, "owner_1": "CHAU PAULINE", "owner_2": null, "parcel_number": "871520260", "parcel_shape": "A", "quality_grade": "C ", "registry_number": "004N140074", "sale_date": "2019-09-09", "separate_utilities": "A", "sewer": null, "site_type": null, "street_code": "88030", "street_designation": "ST  ", "street_direction": "N", "street_name": "12TH", "suffix": null, "taxable_building": 280640.0, "taxable_land": 95160.0, "topography": "F", "total_area": 1199, "total_livable_area": 2790, "type_heater": null, "unfinished": null, "unit": null, "utility": null, "view_type": "I", "year_built": 1915.0, "year_built_estimate": null, "zip_code": "19123", "pin": 1001614399, "building_code_new": "820", "building_code_description_new": "ROW MIXED-COM/RES-BLT AS RES", "objectid": 587134329, "FID": 0.0, "CPI": 268.879, "I676_NS": "north" }, "geometry": { "type": "Point", "coordinates": [ 2695053.000112616922706, 240006.334089490410406 ] } },
{ "type": "Feature", "properties": { "basements": null, "beginning_point": "SEC WOOD STREET", "zoning": "CMX5", "location": "325 N 15TH ST", "adj_sale_price": 13.192197814550799, "sale_price": 10, "book_and_page": "53316745", "building_code": "SR   ", "building_code_description": "VACANT LAND RESIDE < ACRE", "category_code": "7 ", "category_code_description": "GARAGE - COMMERCIAL", "census_tract": "125", "central_air": null, "cross_reference": null, "date_exterior_condition": null, "depth": 198, "exempt_building": 0.0, "exempt_land": 0.0, "exterior_condition": null, "fireplaces": null, "frontage": 86.0, "fuel": null, "garage_spaces": null, "garage_type": null, "general_construction": null, "geographic_ward": "8 ", "homestead_exemption": 0, "house_extension": null, "house_number": "325  ", "interior_condition": null, "mailing_address_1": "SUITE 900", "mailing_care_of": "ATLAS GROUP", "mailing_city_state": "EL SEGUNDO CA", "mailing_street": "222 N SEPULVEDA BLVD", "mailing_zip": "90245", "market_value": 2290200, "market_value_date": null, "number_of_bathrooms": null, "number_of_bedrooms": null, "number_of_rooms": null, "number_stories": null, "off_street_open": null, "owner_1": "BROAD STREET HEALTHCARE", "owner_2": null, "parcel_number": "881038202", "parcel_shape": "B", "quality_grade": null, "registry_number": "003N01 0335", "sale_date": "2018-01-11", "separate_utilities": null, "sewer": null, "site_type": null, "street_code": "88070", "street_designation": "ST  ", "street_direction": "N", "street_name": "15TH", "suffix": null, "taxable_building": 1603140.0, "taxable_land": 687060.0, "topography": null, "total_area": 16622, "total_livable_area": null, "type_heater": null, "unfinished": null, "unit": null, "utility": null, "view_type": null, "year_built": null, "year_built_estimate": null, "zip_code": "19102", "pin": 1001619065, "building_code_new": null, "building_code_description_new": null, "objectid": 587178141, "FID": 0.0, "CPI": 257.979, "I676_NS": "north" }, "geometry": { "type": "Point", "coordinates": [ 2693459.369811862707138, 238443.528463274094975 ] } },
{ "type": "Feature", "properties": { "basements": "D", "beginning_point": "SEC PEARL ST", "zoning": "CMX4", "location": "311 N 13TH ST", "adj_sale_price": 13.282609289564169, "sale_price": 10, "book_and_page": "53241351", "building_code": "U40  ", "building_code_description": "ROW CONV/APT 2.5 STY MAS", "category_code": "2 ", "category_code_description": "MULTI FAMILY", "census_tract": "376", "central_air": "N", "cross_reference": null, "date_exterior_condition": null, "depth": 67, "exempt_building": 0.0, "exempt_land": 0.0, "exterior_condition": "4", "fireplaces": 0, "frontage": 18.0, "fuel": null, "garage_spaces": 0, "garage_type": null, "general_construction": "B ", "geographic_ward": "5 ", "homestead_exemption": 0, "house_extension": null, "house_number": "311  ", "interior_condition": "4", "mailing_address_1": "APT 4A", "mailing_care_of": null, "mailing_city_state": "FLUSHING NY", "mailing_street": "132--29 BLOSSOM AVE", "mailing_zip": "11355-4973", "market_value": 489000, "market_value_date": null, "number_of_bathrooms": 0, "number_of_bedrooms": 0, "number_of_rooms": null, "number_stories": 2, "off_street_open": 259, "owner_1": "RICHARD C PAN REVOCABLE T", "owner_2": null, "parcel_number": "881000938", "parcel_shape": "E", "quality_grade": "C+", "registry_number": "002N240004", "sale_date": "2017-07-19", "separate_utilities": "A", "sewer": null, "site_type": null, "street_code": "88050", "street_designation": "ST  ", "street_direction": "N", "street_name": "13TH", "suffix": null, "taxable_building": 391200.0, "taxable_land": 97800.0, "topography": "F", "total_area": 1206, "total_livable_area": 2412, "type_heater": "B", "unfinished": null, "unit": null, "utility": null, "view_type": "I", "year_built": 1925.0, "year_built_estimate": null, "zip_code": "19107", "pin": 1001616664, "building_code_new": "22", "building_code_description_new": "ROW TYPICAL", "objectid": 587189854, "FID": 0.0, "CPI": 256.223, "I676_NS": "north" }, "geometry": { "type": "Point", "coordinates": [ 2694484.361101876478642, 238282.976680160878459 ] } },
{ "type": "Feature", "properties": { "basements": null, "beginning_point": "48' E RIDGE AVE", "zoning": "CMX2.5", "location": "1120 SPRING GARDEN ST", "adj_sale_price": 13.282609289564169, "sale_price": 10, "book_and_page": "53246603", "building_code": "S30  ", "building_code_description": "ROW W/OFF STR 2 STY MASON", "category_code": "3 ", "category_code_description": "MIXED USE", "census_tract": "376", "central_air": null, "cross_reference": null, "date_exterior_condition": null, "depth": 65, "exempt_building": 0.0, "exempt_land": 0.0, "exterior_condition": "3", "fireplaces": null, "frontage": 18.0, "fuel": null, "garage_spaces": null, "garage_type": null, "general_construction": "A ", "geographic_ward": "5 ", "homestead_exemption": 0, "house_extension": null, "house_number": "1120 ", "interior_condition": "3", "mailing_address_1": null, "mailing_care_of": null, "mailing_city_state": "PHILADELPHIA PA", "mailing_street": "1120 SPRING GARDEN ST", "mailing_zip": "19123-3316", "market_value": 741600, "market_value_date": null, "number_of_bathrooms": null, "number_of_bedrooms": null, "number_of_rooms": null, "number_stories": null, "off_street_open": 537, "owner_1": "JIANG XUE ZHEN", "owner_2": null, "parcel_number": "871509670", "parcel_shape": "A", "quality_grade": "C ", "registry_number": "003N180278", "sale_date": "2017-07-28", "separate_utilities": null, "sewer": null, "site_type": null, "street_code": "73800", "street_designation": "ST  ", "street_direction": null, "street_name": "SPRING GARDEN", "suffix": null, "taxable_building": 593280.0, "taxable_land": 148320.0, "topography": "F", "total_area": 1268, "total_livable_area": 2600, "type_heater": null, "unfinished": null, "unit": null, "utility": null, "view_type": "I", "year_built": 1920.0, "year_built_estimate": null, "zip_code": "19123", "pin": 1001494080, "building_code_new": "821", "building_code_description_new": "ROW MIXED-COM/RES-BLT AS COM", "objectid": 587188995, "FID": 0.0, "CPI": 256.223, "I676_NS": "north" }, "geometry": { "type": "Point", "coordinates": [ 2695268.019328388851136, 239502.79805793313426 ] } },
{ "type": "Feature", "properties": { "basements": null, "beginning_point": "NEC OF CARLTON ST", "zoning": "IRMX", "location": "327 N 11TH ST", "adj_sale_price": 13.601597032939805, "sale_price": 10, "book_and_page": "53040913", "building_code": "CA0  ", "building_code_description": "APTS 5-50 UNITS MASONRY", "category_code": "14", "category_code_description": "APARTMENTS  > 4 UNITS", "census_tract": "376", "central_air": null, "cross_reference": null, "date_exterior_condition": null, "depth": 100, "exempt_building": 0.0, "exempt_land": 0.0, "exterior_condition": "2", "fireplaces": null, "frontage": 19.0, "fuel": null, "garage_spaces": null, "garage_type": null, "general_construction": "A ", "geographic_ward": "5 ", "homestead_exemption": 0, "house_extension": null, "house_number": "327  ", "interior_condition": "2", "mailing_address_1": null, "mailing_care_of": null, "mailing_city_state": "PHILADELPHIA PA", "mailing_street": "327 N 11TH ST", "mailing_zip": "19107-1305", "market_value": 819000, "market_value_date": null, "number_of_bathrooms": null, "number_of_bedrooms": null, "number_of_rooms": null, "number_stories": 3, "off_street_open": 663, "owner_1": "CHANG DAVID", "owner_2": null, "parcel_number": "881041736", "parcel_shape": "E", "quality_grade": "C ", "registry_number": "002N230109", "sale_date": "2016-03-21", "separate_utilities": null, "sewer": null, "site_type": null, "street_code": "88010", "street_designation": "ST  ", "street_direction": "N", "street_name": "11TH", "suffix": null, "taxable_building": 573300.0, "taxable_land": 245700.0, "topography": "F", "total_area": 1875, "total_livable_area": 7500, "type_heater": null, "unfinished": null, "unit": null, "utility": null, "view_type": "I", "year_built": 1915.0, "year_built_estimate": null, "zip_code": "19107", "pin": 1001611930, "building_code_new": "804", "building_code_description_new": "APARTMENTS - LOW RISE", "objectid": 587220832, "FID": 0.0, "CPI": 250.214, "I676_NS": "north" }, "geometry": { "type": "Point", "coordinates": [ 2695415.149930337443948, 238408.335433226777241 ] } },
{ "type": "Feature", "properties": { "basements": null, "beginning_point": "SWC BROAD & CALLOWHILL", "zoning": "CMX5", "location": "322-44 N BROAD ST", "adj_sale_price": 13.612423254604725, "sale_price": 10, "book_and_page": "52994663", "building_code": "6A0  ", "building_code_description": "COM CONDO 1 STY MASONRY", "category_code": "4 ", "category_code_description": "COMMERCIAL", "census_tract": "125", "central_air": null, "cross_reference": null, "date_exterior_condition": null, "depth": 1, "exempt_building": 3224400.0, "exempt_land": 0.0, "exterior_condition": "1", "fireplaces": null, "frontage": 1879.0, "fuel": null, "garage_spaces": null, "garage_type": null, "general_construction": null, "geographic_ward": "8 ", "homestead_exemption": 0, "house_extension": "44", "house_number": "322  ", "interior_condition": "1", "mailing_address_1": "HANOVER COMPAN", "mailing_care_of": "NB PROJECT OWNER LLC", "mailing_city_state": "HOUSTON TX", "mailing_street": "1780 S POST OAK LN", "mailing_zip": "77056", "market_value": 4030500, "market_value_date": null, "number_of_bathrooms": null, "number_of_bedrooms": null, "number_of_rooms": null, "number_stories": null, "off_street_open": null, "owner_1": "NB PROJECT OWNER LLC", "owner_2": null, "parcel_number": "882041405", "parcel_shape": "E", "quality_grade": "A ", "registry_number": "003N010320", "sale_date": "2015-11-20", "separate_utilities": null, "sewer": null, "site_type": null, "street_code": "19140", "street_designation": "ST  ", "street_direction": "N", "street_name": "BROAD", "suffix": null, "taxable_building": 0.0, "taxable_land": 806100.0, "topography": "F", "total_area": 1879, "total_livable_area": 11290, "type_heater": null, "unfinished": null, "unit": "B", "utility": null, "view_type": null, "year_built": 2017.0, "year_built_estimate": null, "zip_code": "19102", "pin": 1001103108, "building_code_new": "245", "building_code_description_new": "RETAIL CONDO", "objectid": 587227109, "FID": 0.0, "CPI": 250.015, "I676_NS": "north" }, "geometry": { "type": "Point", "coordinates": [ 2693638.445021315477788, 238629.901285726053175 ] } },
{ "type": "Feature", "properties": { "basements": null, "beginning_point": "SWC CALLOWHILL ST", "zoning": "CMX5", "location": "322-44 N BROAD ST", "adj_sale_price": 13.612423254604725, "sale_price": 10, "book_and_page": "52994663", "building_code": "CC0  ", "building_code_description": "APTS 100+ UNITS MASONRY", "category_code": "2 ", "category_code_description": "MULTI FAMILY", "census_tract": "125", "central_air": null, "cross_reference": null, "date_exterior_condition": null, "depth": 1, "exempt_building": 62766450.0, "exempt_land": 0.0, "exterior_condition": "1", "fireplaces": null, "frontage": 0.0, "fuel": null, "garage_spaces": null, "garage_type": null, "general_construction": "B ", "geographic_ward": "8 ", "homestead_exemption": 0, "house_extension": "44", "house_number": "322  ", "interior_condition": "1", "mailing_address_1": null, "mailing_care_of": null, "mailing_city_state": "HOUSTON TX", "mailing_street": "1780 S POST OAK LANE", "mailing_zip": "77056", "market_value": 69740500, "market_value_date": null, "number_of_bathrooms": null, "number_of_bedrooms": null, "number_of_rooms": null, "number_stories": 5, "off_street_open": null, "owner_1": "NB PROJECT OWNER LLC", "owner_2": "HANOVER R S LLC", "parcel_number": "881041406", "parcel_shape": "A", "quality_grade": "A-", "registry_number": "003N01 0331", "sale_date": "2015-11-20", "separate_utilities": "C", "sewer": null, "site_type": null, "street_code": "19140", "street_designation": "ST  ", "street_direction": "N", "street_name": "BROAD", "suffix": null, "taxable_building": 0.0, "taxable_land": 6974050.0, "topography": "F", "total_area": 59156, "total_livable_area": 253276, "type_heater": null, "unfinished": null, "unit": null, "utility": null, "view_type": null, "year_built": 2016.0, "year_built_estimate": null, "zip_code": "19102", "pin": 1001103106, "building_code_new": "830", "building_code_description_new": "APARTMENTS - MID RISE", "objectid": 587227110, "FID": 0.0, "CPI": 250.015, "I676_NS": "north" }, "geometry": { "type": "Point", "coordinates": [ 2693638.445021315477788, 238629.901285726053175 ] } },
{ "type": "Feature", "properties": { "basements": null, "beginning_point": "SEC CALLOWHILL", "zoning": "CMX4", "location": "339 N BROAD ST", "adj_sale_price": 13.612423254604725, "sale_price": 10, "book_and_page": "52994663", "building_code": "CC0  ", "building_code_description": "APTS 100+ UNITS MASONRY", "category_code": "14", "category_code_description": "APARTMENTS  > 4 UNITS", "census_tract": "376", "central_air": null, "cross_reference": null, "date_exterior_condition": null, "depth": 1, "exempt_building": 29997000.0, "exempt_land": 0.0, "exterior_condition": "1", "fireplaces": null, "frontage": 0.0, "fuel": null, "garage_spaces": null, "garage_type": null, "general_construction": "A ", "geographic_ward": "5 ", "homestead_exemption": 0, "house_extension": null, "house_number": "339  ", "interior_condition": "1", "mailing_address_1": null, "mailing_care_of": null, "mailing_city_state": "HOUSTON TX", "mailing_street": "1780 S POST OAK LANE", "mailing_zip": "77056", "market_value": 33330000, "market_value_date": null, "number_of_bathrooms": null, "number_of_bedrooms": null, "number_of_rooms": null, "number_stories": 5, "off_street_open": null, "owner_1": "NB PROJECT OWNER", "owner_2": "HANOVER R S LIMITED", "parcel_number": "881041339", "parcel_shape": "E", "quality_grade": "C+", "registry_number": "002N24 593", "sale_date": "2015-11-20", "separate_utilities": "C", "sewer": "Y", "site_type": null, "street_code": "19140", "street_designation": "ST  ", "street_direction": "N", "street_name": "BROAD", "suffix": null, "taxable_building": 0.0, "taxable_land": 3333000.0, "topography": "F", "total_area": 25151, "total_livable_area": 115109, "type_heater": null, "unfinished": null, "unit": null, "utility": null, "view_type": null, "year_built": 2016.0, "year_built_estimate": null, "zip_code": "19107", "pin": 1001103114, "building_code_new": "830", "building_code_description_new": "APARTMENTS - MID RISE", "objectid": 587227125, "FID": 0.0, "CPI": 250.015, "I676_NS": "north" }, "geometry": { "type": "Point", "coordinates": [ 2694023.819181818980724, 238647.757108326273737 ] } },
{ "type": "Feature", "properties": { "basements": "A", "beginning_point": "151.994' W NOBLE & 12TH", "zoning": "CMX3", "location": "1215 NOBLE ST", "adj_sale_price": 13.601597032939805, "sale_price": 10, "book_and_page": "53033425", "building_code": "571  ", "building_code_description": "RES CONDO 4 STY MAS+OTH", "category_code": "1 ", "category_code_description": "SINGLE FAMILY", "census_tract": "376", "central_air": "Y", "cross_reference": null, "date_exterior_condition": null, "depth": 88, "exempt_building": 358000.0, "exempt_land": 0.0, "exterior_condition": "1", "fireplaces": 0, "frontage": 21.0, "fuel": "A", "garage_spaces": 0, "garage_type": null, "general_construction": "H ", "geographic_ward": "5 ", "homestead_exemption": 0, "house_extension": null, "house_number": "1215 ", "interior_condition": "1", "mailing_address_1": null, "mailing_care_of": null, "mailing_city_state": "NARBERTH PA", "mailing_street": "509 CONSHOHOCKEN STATE RD", "mailing_zip": "19072", "market_value": 421100, "market_value_date": null, "number_of_bathrooms": 2, "number_of_bedrooms": 3, "number_of_rooms": null, "number_stories": 1, "off_street_open": null, "owner_1": "HAMILTON 1220 SQUARE LLC", "owner_2": null, "parcel_number": "888501054", "parcel_shape": "E", "quality_grade": "B ", "registry_number": "003N190332", "sale_date": "2016-03-10", "separate_utilities": "C", "sewer": "Y", "site_type": null, "street_code": "59940", "street_designation": "ST  ", "street_direction": null, "street_name": "NOBLE", "suffix": null, "taxable_building": 0.0, "taxable_land": 63100.0, "topography": "F", "total_area": 1821, "total_livable_area": 1800, "type_heater": "A", "unfinished": null, "unit": "1", "utility": null, "view_type": "I", "year_built": 2016.0, "year_built_estimate": null, "zip_code": "19123", "pin": 1001390708, "building_code_new": "25", "building_code_description_new": "ROW MODERN", "objectid": 587221882, "FID": 0.0, "CPI": 250.214, "I676_NS": "north" }, "geometry": { "type": "Point", "coordinates": [ 2694787.623926874250174, 239025.126769188733306 ] } },
{ "type": "Feature", "properties": { "basements": null, "beginning_point": "172.72' FROM WS OF 12TH", "zoning": "CMX3", "location": "1220 HAMILTON ST", "adj_sale_price": 13.601597032939805, "sale_price": 10, "book_and_page": "53033425", "building_code": "RA   ", "building_code_description": "PKG LOT NON COMMERCIAL", "category_code": "14", "category_code_description": "APARTMENTS  > 4 UNITS", "census_tract": "376", "central_air": null, "cross_reference": null, "date_exterior_condition": null, "depth": 62, "exempt_building": 1824300.0, "exempt_land": 0.0, "exterior_condition": "1", "fireplaces": null, "frontage": 55.0, "fuel": null, "garage_spaces": null, "garage_type": null, "general_construction": "A ", "geographic_ward": "5 ", "homestead_exemption": 0, "house_extension": null, "house_number": "1220 ", "interior_condition": "1", "mailing_address_1": null, "mailing_care_of": null, "mailing_city_state": "NARBERTH PA", "mailing_street": "509 CONSHOHOCKEN STATE RD", "mailing_zip": "19072", "market_value": 2027000, "market_value_date": null, "number_of_bathrooms": null, "number_of_bedrooms": null, "number_of_rooms": null, "number_stories": 7, "off_street_open": null, "owner_1": "HAMILTON 1220 SQUARE LLC", "owner_2": null, "parcel_number": "881553400", "parcel_shape": "A", "quality_grade": "B ", "registry_number": "003N190335", "sale_date": "2016-03-10", "separate_utilities": null, "sewer": null, "site_type": null, "street_code": "40180", "street_designation": "ST  ", "street_direction": null, "street_name": "HAMILTON", "suffix": null, "taxable_building": 0.0, "taxable_land": 202700.0, "topography": null, "total_area": 4132, "total_livable_area": 21945, "type_heater": null, "unfinished": null, "unit": null, "utility": null, "view_type": null, "year_built": 2021.0, "year_built_estimate": null, "zip_code": "19123", "pin": 1001260530, "building_code_new": "830", "building_code_description_new": "APARTMENTS - MID RISE", "objectid": 587221887, "FID": 0.0, "CPI": 250.214, "I676_NS": "north" }, "geometry": { "type": "Point", "coordinates": [ 2694778.761591942049563, 239097.754454195819562 ] } },
{ "type": "Feature", "properties": { "basements": null, "beginning_point": "16' N OF PEARL ST", "zoning": "ICMX", "location": "316-22 N 10TH ST", "adj_sale_price": 14.0187751268701, "sale_price": 10, "book_and_page": "52536526", "building_code": "RB   ", "building_code_description": "NON PD PKG LOT COMMERCIAL", "category_code": "6 ", "category_code_description": "VACANT LAND", "census_tract": "376", "central_air": null, "cross_reference": null, "date_exterior_condition": null, "depth": 80, "exempt_building": 0.0, "exempt_land": 0.0, "exterior_condition": null, "fireplaces": null, "frontage": 64.0, "fuel": null, "garage_spaces": null, "garage_type": null, "general_construction": null, "geographic_ward": "5 ", "homestead_exemption": 0, "house_extension": "22", "house_number": "316  ", "interior_condition": null, "mailing_address_1": null, "mailing_care_of": null, "mailing_city_state": "PHILADELPHIA PA", "mailing_street": "1010 WOOD ST", "mailing_zip": "19107", "market_value": 1123600, "market_value_date": null, "number_of_bathrooms": null, "number_of_bedrooms": null, "number_of_rooms": null, "number_stories": null, "off_street_open": 392, "owner_1": "CHIN JOSEFINA TR", "owner_2": "CHIN EDWIN TR", "parcel_number": "885862780", "parcel_shape": "A", "quality_grade": null, "registry_number": "002N230057", "sale_date": "2012-09-13", "separate_utilities": null, "sewer": null, "site_type": null, "street_code": "87990", "street_designation": "ST  ", "street_direction": "N", "street_name": "10TH", "suffix": null, "taxable_building": 0.0, "taxable_land": 1123600.0, "topography": "F", "total_area": 4750, "total_livable_area": null, "type_heater": null, "unfinished": null, "unit": null, "utility": null, "view_type": "I", "year_built": null, "year_built_estimate": null, "zip_code": "19107", "pin": 1001609549, "building_code_new": null, "building_code_description_new": null, "objectid": 587279322, "FID": 0.0, "CPI": 242.768, "I676_NS": "north" }, "geometry": { "type": "Point", "coordinates": [ 2695699.299673075322062, 238187.087257584324107 ] } },
{ "type": "Feature", "properties": { "basements": null, "beginning_point": "SWC 15TH & HAMILTON", "zoning": "CMX4", "location": "440 N 15TH ST", "adj_sale_price": 14.394090628409986, "sale_price": 10, "book_and_page": "52321444", "building_code": "SD   ", "building_code_description": "VACANT LAND COMMER ACRE+", "category_code": "6 ", "category_code_description": "VACANT LAND", "census_tract": "125", "central_air": null, "cross_reference": null, "date_exterior_condition": null, "depth": 296, "exempt_building": 0.0, "exempt_land": 0.0, "exterior_condition": null, "fireplaces": null, "frontage": 247.0, "fuel": null, "garage_spaces": null, "garage_type": null, "general_construction": null, "geographic_ward": "8 ", "homestead_exemption": 0, "house_extension": null, "house_number": "440  ", "interior_condition": null, "mailing_address_1": "GENERAL COUNSEL", "mailing_care_of": "VICTORIA L ZELLERS ESQ", "mailing_city_state": "PHILADELPHIA PA", "mailing_street": "1700 SPRING GARDEN ST", "mailing_zip": "19130", "market_value": 8876000, "market_value_date": null, "number_of_bathrooms": null, "number_of_bedrooms": null, "number_of_rooms": null, "number_stories": null, "off_street_open": null, "owner_1": "COMM COLLEGE OF PHILA", "owner_2": null, "parcel_number": "881148500", "parcel_shape": "E", "quality_grade": null, "registry_number": "003N210083", "sale_date": "2011-03-01", "separate_utilities": null, "sewer": null, "site_type": null, "street_code": "88070", "street_designation": "ST  ", "street_direction": "N", "street_name": "15TH", "suffix": null, "taxable_building": 0.0, "taxable_land": 8876000.0, "topography": null, "total_area": 72944, "total_livable_area": null, "type_heater": null, "unfinished": null, "unit": null, "utility": null, "view_type": null, "year_built": null, "year_built_estimate": null, "zip_code": "19130", "pin": 1001619078, "building_code_new": null, "building_code_description_new": null, "objectid": 587298778, "FID": 0.0, "CPI": 236.438, "I676_NS": "north" }, "geometry": { "type": "Point", "coordinates": [ 2693280.552403075620532, 239244.063590279925847 ] } },
{ "type": "Feature", "properties": { "basements": null, "beginning_point": "171'7 3/8\" W 08TH ST", "zoning": "CMX4", "location": "815-37 ARCH ST", "adj_sale_price": 12.04344872003567, "sale_price": 10, "book_and_page": "53909966", "building_code": "6A0  ", "building_code_description": "COM CONDO 1 STY MASONRY", "category_code": "4 ", "category_code_description": "COMMERCIAL", "census_tract": "2  ", "central_air": "Y", "cross_reference": null, "date_exterior_condition": null, "depth": 0, "exempt_building": 0.0, "exempt_land": 0.0, "exterior_condition": "3", "fireplaces": null, "frontage": 0.0, "fuel": "C", "garage_spaces": null, "garage_type": null, "general_construction": "F ", "geographic_ward": "5 ", "homestead_exemption": 0, "house_extension": "37", "house_number": "815  ", "interior_condition": "3", "mailing_address_1": null, "mailing_care_of": null, "mailing_city_state": "PHILADELPHIA PA", "mailing_street": "815-37 ARCH ST UNIT 107", "mailing_zip": "19107", "market_value": 333500, "market_value_date": null, "number_of_bathrooms": null, "number_of_bedrooms": null, "number_of_rooms": null, "number_stories": 1, "off_street_open": 490, "owner_1": "WONG WAI MEI", "owner_2": "WONG ANDREW", "parcel_number": "888112758", "parcel_shape": "E", "quality_grade": "C ", "registry_number": "1N8 S/O 27", "sale_date": "2021-10-22", "separate_utilities": null, "sewer": null, "site_type": null, "street_code": "13000", "street_designation": "ST  ", "street_direction": null, "street_name": "ARCH", "suffix": null, "taxable_building": 280200.0, "taxable_land": 53300.0, "topography": null, "total_area": 1, "total_livable_area": 1429, "type_heater": "A", "unfinished": null, "unit": "107", "utility": null, "view_type": "I", "year_built": 2007.0, "year_built_estimate": null, "zip_code": "19107", "pin": 1001069253, "building_code_new": "40", "building_code_description_new": "CONDO NON CONFORMING", "objectid": 587076817, "FID": 0.0, "CPI": 282.586, "I676_NS": "south" }, "geometry": { "type": "Point", "coordinates": [ 2696150.60607700701803, 236716.355951366043882 ] } },
{ "type": "Feature", "properties": { "basements": null, "beginning_point": "171' 7 3/8\" W 08TH ST", "zoning": "CMX4", "location": "815-37 ARCH ST", "adj_sale_price": 12.395866721058306, "sale_price": 10, "book_and_page": "53822808", "building_code": "590  ", "building_code_description": "RES CONDO 5+ STY MASONRY", "category_code": "1 ", "category_code_description": "SINGLE FAMILY", "census_tract": "2  ", "central_air": "Y", "cross_reference": null, "date_exterior_condition": null, "depth": 0, "exempt_building": 0.0, "exempt_land": 0.0, "exterior_condition": "3", "fireplaces": 0, "frontage": 0.0, "fuel": "C", "garage_spaces": 1, "garage_type": null, "general_construction": "A ", "geographic_ward": "5 ", "homestead_exemption": 0, "house_extension": "37", "house_number": "815  ", "interior_condition": "3", "mailing_address_1": "LU WEI GUO", "mailing_care_of": null, "mailing_city_state": "ELMHURST NY", "mailing_street": "88-35 51ST AVE 1ST FLR", "mailing_zip": "11373", "market_value": 258900, "market_value_date": null, "number_of_bathrooms": 1, "number_of_bedrooms": 1, "number_of_rooms": null, "number_stories": 1, "off_street_open": 490, "owner_1": "LU WEI GUO", "owner_2": "LU XIN DAN", "parcel_number": "888112848", "parcel_shape": "E", "quality_grade": "B+", "registry_number": "001N180373", "sale_date": "2021-03-22", "separate_utilities": null, "sewer": null, "site_type": null, "street_code": "13000", "street_designation": "ST  ", "street_direction": null, "street_name": "ARCH", "suffix": null, "taxable_building": 217600.0, "taxable_land": 41300.0, "topography": null, "total_area": 1, "total_livable_area": 607, "type_heater": "A", "unfinished": null, "unit": "502", "utility": null, "view_type": "I", "year_built": 2007.0, "year_built_estimate": "Y", "zip_code": "19107", "pin": 1001069298, "building_code_new": "08", "building_code_description_new": null, "objectid": 587091878, "FID": 0.0, "CPI": 274.552, "I676_NS": "south" }, "geometry": { "type": "Point", "coordinates": [ 2696150.60607700701803, 236716.355951366043882 ] } },
{ "type": "Feature", "properties": { "basements": "D", "beginning_point": "82'4\" W 10TH ST", "zoning": "CMX3", "location": "1008 WINTER ST", "adj_sale_price": 12.395866721058306, "sale_price": 10, "book_and_page": "53794447", "building_code": "O50  ", "building_code_description": "ROW 3 STY MASONRY", "category_code": "1 ", "category_code_description": "SINGLE FAMILY", "census_tract": "2  ", "central_air": "Y", "cross_reference": null, "date_exterior_condition": null, "depth": 53, "exempt_building": 0.0, "exempt_land": 0.0, "exterior_condition": "3", "fireplaces": 0, "frontage": 18.0, "fuel": null, "garage_spaces": 0, "garage_type": null, "general_construction": "A ", "geographic_ward": "5 ", "homestead_exemption": 0, "house_extension": null, "house_number": "1008 ", "interior_condition": "4", "mailing_address_1": "MAK TIMMOTHY", "mailing_care_of": null, "mailing_city_state": "PHILADELPHIA PA", "mailing_street": "317 N 09TH ST", "mailing_zip": "19107", "market_value": 510900, "market_value_date": null, "number_of_bathrooms": 0, "number_of_bedrooms": 0, "number_of_rooms": null, "number_stories": 2, "off_street_open": 369, "owner_1": "MAK MICHAEL ALEXANDER", "owner_2": "MAK NICHOLAS LUP-SUN", "parcel_number": "054008035", "parcel_shape": "E", "quality_grade": "B ", "registry_number": "2N9-395", "sale_date": "2021-01-25", "separate_utilities": null, "sewer": null, "site_type": null, "street_code": "83900", "street_designation": "ST  ", "street_direction": null, "street_name": "WINTER", "suffix": null, "taxable_building": 408720.0, "taxable_land": 102180.0, "topography": "F", "total_area": 971, "total_livable_area": 1284, "type_heater": "A", "unfinished": null, "unit": "B", "utility": null, "view_type": "I", "year_built": 1982.0, "year_built_estimate": null, "zip_code": "19107", "pin": 1001571737, "building_code_new": "23", "building_code_description_new": "ROW POST WAR", "objectid": 587096201, "FID": 0.0, "CPI": 274.552, "I676_NS": "south" }, "geometry": { "type": "Point", "coordinates": [ 2695580.288221430964768, 237703.623650229885243 ] } },
{ "type": "Feature", "properties": { "basements": null, "beginning_point": "SWC VINE", "zoning": "CMX4", "location": "1100 VINE ST", "adj_sale_price": 12.608120623865446, "sale_price": 10, "book_and_page": "53637908", "building_code": "590  ", "building_code_description": "RES CONDO 5+ STY MASONRY", "category_code": "1 ", "category_code_description": "SINGLE FAMILY", "census_tract": "2  ", "central_air": null, "cross_reference": null, "date_exterior_condition": null, "depth": 0, "exempt_building": 100000.0, "exempt_land": 0.0, "exterior_condition": "4", "fireplaces": 0, "frontage": 0.0, "fuel": null, "garage_spaces": 0, "garage_type": null, "general_construction": "A ", "geographic_ward": "5 ", "homestead_exemption": 100000, "house_extension": null, "house_number": "1100 ", "interior_condition": "4", "mailing_address_1": "717", "mailing_care_of": null, "mailing_city_state": "PHILADELPHIA PA", "mailing_street": "1100 VINE ST", "mailing_zip": "19107-1703", "market_value": 311100, "market_value_date": null, "number_of_bathrooms": 0, "number_of_bedrooms": 0, "number_of_rooms": null, "number_stories": 1, "off_street_open": 208, "owner_1": "YIN HUI LUO", "owner_2": "LI YAN L", "parcel_number": "888071826", "parcel_shape": "E", "quality_grade": "B ", "registry_number": "002N090490", "sale_date": "2020-02-27", "separate_utilities": null, "sewer": null, "site_type": null, "street_code": "80120", "street_designation": "ST  ", "street_direction": null, "street_name": "VINE", "suffix": null, "taxable_building": 170800.0, "taxable_land": 40300.0, "topography": null, "total_area": 1, "total_livable_area": 1156, "type_heater": null, "unfinished": null, "unit": "717", "utility": null, "view_type": "I", "year_built": 1900.0, "year_built_estimate": "Y", "zip_code": "19107", "pin": 1001540873, "building_code_new": "08", "building_code_description_new": null, "objectid": 587121287, "FID": 0.0, "CPI": 269.93, "I676_NS": "south" }, "geometry": { "type": "Point", "coordinates": [ 2695152.370642142370343, 237682.308098735258682 ] } },
{ "type": "Feature", "properties": { "basements": "0", "beginning_point": "260.77 S CALLOWHILL ST", "zoning": null, "location": "300 N 8TH ST", "adj_sale_price": 12.657403516079723, "sale_price": 10, "book_and_page": "53571396", "building_code": "O20  ", "building_code_description": "ROW 1.5 STY MASONRY", "category_code": "1 ", "category_code_description": "SINGLE FAMILY", "census_tract": "2  ", "central_air": "Y", "cross_reference": null, "date_exterior_condition": null, "depth": 26, "exempt_building": 100000.0, "exempt_land": 0.0, "exterior_condition": "4", "fireplaces": 0, "frontage": 31.0, "fuel": "A", "garage_spaces": 0, "garage_type": null, "general_construction": "A ", "geographic_ward": "5 ", "homestead_exemption": 100000, "house_extension": null, "house_number": "300  ", "interior_condition": "4", "mailing_address_1": "B", "mailing_care_of": null, "mailing_city_state": "PHILADELPHIA PA", "mailing_street": "300 N 8TH ST", "mailing_zip": "19107-1401", "market_value": 248500, "market_value_date": null, "number_of_bathrooms": 1, "number_of_bedrooms": 2, "number_of_rooms": null, "number_stories": 1, "off_street_open": 734, "owner_1": "CHIU EDMOND", "owner_2": "ZHAO ZHI YONG", "parcel_number": "056286710", "parcel_shape": "A", "quality_grade": "C ", "registry_number": "002N210304", "sale_date": "2019-09-23", "separate_utilities": null, "sewer": null, "site_type": null, "street_code": "87950", "street_designation": "ST  ", "street_direction": "N", "street_name": "8TH", "suffix": null, "taxable_building": 98800.0, "taxable_land": 49700.0, "topography": "F", "total_area": 832, "total_livable_area": 1296, "type_heater": "A", "unfinished": null, "unit": "B", "utility": null, "view_type": "I", "year_built": 1998.0, "year_built_estimate": null, "zip_code": "19107", "pin": 1001604051, "building_code_new": "08", "building_code_description_new": null, "objectid": 587132772, "FID": 0.0, "CPI": 268.879, "I676_NS": "south" }, "geometry": { "type": "Point", "coordinates": [ 2696603.061832451727241, 237782.16556658394984 ] } },
{ "type": "Feature", "properties": { "basements": "D", "beginning_point": "150' W 9TH ST 50'10\"", "zoning": "RM1", "location": "916 SPRING ST", "adj_sale_price": 12.831494056124662, "sale_price": 10, "book_and_page": "53480150", "building_code": "O40  ", "building_code_description": "ROW 2.5 STY MASONRY", "category_code": "1 ", "category_code_description": "SINGLE FAMILY", "census_tract": "2  ", "central_air": "Y", "cross_reference": null, "date_exterior_condition": null, "depth": 48, "exempt_building": 100000.0, "exempt_land": 0.0, "exterior_condition": "3", "fireplaces": 0, "frontage": 16.0, "fuel": null, "garage_spaces": 0, "garage_type": null, "general_construction": "A ", "geographic_ward": "5 ", "homestead_exemption": 100000, "house_extension": null, "house_number": "916  ", "interior_condition": "4", "mailing_address_1": "C", "mailing_care_of": null, "mailing_city_state": "PHILADELPHIA PA", "mailing_street": "916 SPRING ST", "mailing_zip": "19107-1800", "market_value": 508100, "market_value_date": null, "number_of_bathrooms": 0, "number_of_bedrooms": 0, "number_of_rooms": null, "number_stories": 2, "off_street_open": 61, "owner_1": "FONG JAMES", "owner_2": null, "parcel_number": "054018445", "parcel_shape": "E", "quality_grade": "C ", "registry_number": "002N080401", "sale_date": "2019-02-21", "separate_utilities": null, "sewer": null, "site_type": null, "street_code": "73740", "street_designation": "ST  ", "street_direction": null, "street_name": "SPRING", "suffix": null, "taxable_building": 306480.0, "taxable_land": 101620.0, "topography": "F", "total_area": 780, "total_livable_area": 1233, "type_heater": "B", "unfinished": null, "unit": "C", "utility": null, "view_type": "I", "year_built": 1982.0, "year_built_estimate": null, "zip_code": "19107", "pin": 1001493706, "building_code_new": "23", "building_code_description_new": "ROW POST WAR", "objectid": 587150282, "FID": 0.0, "CPI": 265.231, "I676_NS": "south" }, "geometry": { "type": "Point", "coordinates": [ 2695907.823141863569617, 237409.306693734106375 ] } },
{ "type": "Feature", "properties": { "basements": null, "beginning_point": "NEC 11TH ST", "zoning": "CMX4", "location": "1027-31 ARCH ST", "adj_sale_price": 13.037204170912407, "sale_price": 10, "book_and_page": "53398986", "building_code": "590  ", "building_code_description": "RES CONDO 5+ STY MASONRY", "category_code": "1 ", "category_code_description": "SINGLE FAMILY", "census_tract": "2  ", "central_air": null, "cross_reference": null, "date_exterior_condition": null, "depth": 0, "exempt_building": 0.0, "exempt_land": 0.0, "exterior_condition": "3", "fireplaces": 0, "frontage": 0.0, "fuel": null, "garage_spaces": 0, "garage_type": null, "general_construction": "A ", "geographic_ward": "5 ", "homestead_exemption": 0, "house_extension": "31", "house_number": "1027 ", "interior_condition": "3", "mailing_address_1": null, "mailing_care_of": "HURD LINDA K", "mailing_city_state": "SMYRNA DE", "mailing_street": "3111 BIG WOODS RD", "mailing_zip": "19977", "market_value": 368800, "market_value_date": null, "number_of_bathrooms": 0, "number_of_bedrooms": 0, "number_of_rooms": null, "number_stories": 1, "off_street_open": 247, "owner_1": "HURD LINDA K TR", "owner_2": "LINDA K HURD REVOCABLE TR", "parcel_number": "888030512", "parcel_shape": "E", "quality_grade": "B ", "registry_number": "001N190510", "sale_date": "2018-07-19", "separate_utilities": null, "sewer": null, "site_type": null, "street_code": "13000", "street_designation": "ST  ", "street_direction": null, "street_name": "ARCH", "suffix": null, "taxable_building": 317300.0, "taxable_land": 51500.0, "topography": null, "total_area": 0, "total_livable_area": 962, "type_heater": null, "unfinished": null, "unit": "307", "utility": null, "view_type": "I", "year_built": 1900.0, "year_built_estimate": "Y", "zip_code": "19107", "pin": 1001069582, "building_code_new": "08", "building_code_description_new": null, "objectid": 587164624, "FID": 0.0, "CPI": 261.046, "I676_NS": "south" }, "geometry": { "type": "Point", "coordinates": [ 2695184.235054366756231, 236788.181342460738961 ] } },
{ "type": "Feature", "properties": { "basements": null, "beginning_point": "SEC OF 15TH & CHERRY", "zoning": "CMX5", "location": "127-31 N 15TH ST", "adj_sale_price": 13.192197814550799, "sale_price": 10, "book_and_page": "53377252", "building_code": "L50  ", "building_code_description": "S/D OFF/STR 3 STY MASONRY", "category_code": "3 ", "category_code_description": "MIXED USE", "census_tract": "3  ", "central_air": null, "cross_reference": null, "date_exterior_condition": null, "depth": 33, "exempt_building": 0.0, "exempt_land": 0.0, "exterior_condition": "5", "fireplaces": null, "frontage": 48.0, "fuel": null, "garage_spaces": null, "garage_type": null, "general_construction": "H ", "geographic_ward": "8 ", "homestead_exemption": 0, "house_extension": "31", "house_number": "127  ", "interior_condition": "5", "mailing_address_1": null, "mailing_care_of": null, "mailing_city_state": "PHILADELPHIA PA", "mailing_street": "1424 CASTLE AVE", "mailing_zip": "19145", "market_value": 1215300, "market_value_date": null, "number_of_bathrooms": null, "number_of_bedrooms": null, "number_of_rooms": null, "number_stories": null, "off_street_open": null, "owner_1": "CHERRY ORCHARD LLC", "owner_2": null, "parcel_number": "871403260", "parcel_shape": "A", "quality_grade": "C ", "registry_number": "001N220287", "sale_date": "2018-06-11", "separate_utilities": null, "sewer": "Y", "site_type": null, "street_code": "88070", "street_designation": "ST  ", "street_direction": "N", "street_name": "15TH", "suffix": null, "taxable_building": 972240.0, "taxable_land": 243060.0, "topography": "F", "total_area": 2130, "total_livable_area": 5430, "type_heater": null, "unfinished": null, "unit": null, "utility": null, "view_type": "D", "year_built": 1920.0, "year_built_estimate": null, "zip_code": "19102", "pin": 1001619045, "building_code_new": "820", "building_code_description_new": "ROW MIXED-COM/RES-BLT AS RES", "objectid": 587168410, "FID": 0.0, "CPI": 257.979, "I676_NS": "south" }, "geometry": { "type": "Point", "coordinates": [ 2693224.83143602265045, 237220.527917862171307 ] } },
{ "type": "Feature", "properties": { "basements": "D", "beginning_point": "130' 7 1/2\" W 10TH ST", "zoning": "CMX3", "location": "1014 WINTER ST", "adj_sale_price": 13.192197814550799, "sale_price": 10, "book_and_page": "53325240", "building_code": "O50  ", "building_code_description": "ROW 3 STY MASONRY", "category_code": "1 ", "category_code_description": "SINGLE FAMILY", "census_tract": "2  ", "central_air": "Y", "cross_reference": null, "date_exterior_condition": null, "depth": 53, "exempt_building": 100000.0, "exempt_land": 0.0, "exterior_condition": "3", "fireplaces": 0, "frontage": 18.0, "fuel": null, "garage_spaces": 0, "garage_type": null, "general_construction": "A ", "geographic_ward": "5 ", "homestead_exemption": 100000, "house_extension": null, "house_number": "1014 ", "interior_condition": "4", "mailing_address_1": "A", "mailing_care_of": null, "mailing_city_state": "PHILADELPHIA PA", "mailing_street": "1014 WINTER ST", "mailing_zip": "19107-1808", "market_value": 510900, "market_value_date": null, "number_of_bathrooms": 0, "number_of_bedrooms": 0, "number_of_rooms": null, "number_stories": 2, "off_street_open": 369, "owner_1": "LAM CATHERINE", "owner_2": null, "parcel_number": "054008070", "parcel_shape": "E", "quality_grade": "B-", "registry_number": "002N090407", "sale_date": "2018-01-30", "separate_utilities": null, "sewer": null, "site_type": null, "street_code": "83900", "street_designation": "ST  ", "street_direction": null, "street_name": "WINTER", "suffix": null, "taxable_building": 308720.0, "taxable_land": 102180.0, "topography": "F", "total_area": 971, "total_livable_area": 1284, "type_heater": "A", "unfinished": null, "unit": "A", "utility": null, "view_type": "I", "year_built": 1982.0, "year_built_estimate": null, "zip_code": "19107", "pin": 1001571740, "building_code_new": "23", "building_code_description_new": "ROW POST WAR", "objectid": 587176851, "FID": 0.0, "CPI": 257.979, "I676_NS": "south" }, "geometry": { "type": "Point", "coordinates": [ 2695532.135483095888048, 237710.226577642024495 ] } },
{ "type": "Feature", "properties": { "basements": null, "beginning_point": "78' W OF 12TH ST", "zoning": "CMX4", "location": "1209 RACE ST", "adj_sale_price": 13.282609289564169, "sale_price": 10, "book_and_page": "53310245", "building_code": "Y50  ", "building_code_description": "STR/OFF+APT 3 STY MASONRY", "category_code": "3 ", "category_code_description": "MIXED USE", "census_tract": "2  ", "central_air": null, "cross_reference": null, "date_exterior_condition": null, "depth": 100, "exempt_building": 0.0, "exempt_land": 0.0, "exterior_condition": "4", "fireplaces": null, "frontage": 20.0, "fuel": null, "garage_spaces": null, "garage_type": null, "general_construction": "A ", "geographic_ward": "5 ", "homestead_exemption": 0, "house_extension": null, "house_number": "1209 ", "interior_condition": "4", "mailing_address_1": null, "mailing_care_of": null, "mailing_city_state": "CHERRY HILL NJ", "mailing_street": "410 BARBY LN", "mailing_zip": "08003", "market_value": 896600, "market_value_date": null, "number_of_bathrooms": null, "number_of_bedrooms": null, "number_of_rooms": null, "number_stories": null, "off_street_open": 108, "owner_1": "JONATHAN JEN IRREVOCABLE", "owner_2": null, "parcel_number": "871060400", "parcel_shape": "E", "quality_grade": "C ", "registry_number": "002N100253", "sale_date": "2017-12-27", "separate_utilities": "A", "sewer": null, "site_type": null, "street_code": "67120", "street_designation": "ST  ", "street_direction": null, "street_name": "RACE", "suffix": null, "taxable_building": 717280.0, "taxable_land": 179320.0, "topography": "F", "total_area": 2000, "total_livable_area": 3630, "type_heater": null, "unfinished": null, "unit": null, "utility": null, "view_type": "I", "year_built": 1925.0, "year_built_estimate": null, "zip_code": "19107", "pin": 1001438046, "building_code_new": "821", "building_code_description_new": "ROW MIXED-COM/RES-BLT AS COM", "objectid": 587179304, "FID": 0.0, "CPI": 256.223, "I676_NS": "south" }, "geometry": { "type": "Point", "coordinates": [ 2694647.509000768419355, 237482.718059662292944 ] } },
{ "type": "Feature", "properties": { "basements": null, "beginning_point": "NEC 17TH ST", "zoning": "CMX5", "location": "3 BENJAMIN FRANKLIN PKWY", "adj_sale_price": 13.362348543742687, "sale_price": 10, "book_and_page": "53182490", "building_code": "DB0  ", "building_code_description": "OFF BLD COM NO GAR MASON", "category_code": "10", "category_code_description": "OFFICES", "census_tract": "3  ", "central_air": null, "cross_reference": null, "date_exterior_condition": null, "depth": 83, "exempt_building": 0.0, "exempt_land": 0.0, "exterior_condition": "3", "fireplaces": null, "frontage": 357.0, "fuel": null, "garage_spaces": null, "garage_type": null, "general_construction": "A ", "geographic_ward": "8 ", "homestead_exemption": 0, "house_extension": null, "house_number": "3    ", "interior_condition": "3", "mailing_address_1": "STE 200", "mailing_care_of": null, "mailing_city_state": "GLASTONBURY CT", "mailing_street": null, "mailing_zip": "06033", "market_value": 30000000, "market_value_date": null, "number_of_bathrooms": null, "number_of_bedrooms": null, "number_of_rooms": null, "number_stories": 20, "off_street_open": 400, "owner_1": "THREE PW OFFICE LLC", "owner_2": null, "parcel_number": "883060510", "parcel_shape": "A", "quality_grade": "A ", "registry_number": "001N230230", "sale_date": "2017-03-01", "separate_utilities": null, "sewer": null, "site_type": null, "street_code": "16880", "street_designation": "PKWY", "street_direction": null, "street_name": "BEN FRANKLIN", "suffix": null, "taxable_building": 24000000.0, "taxable_land": 6000000.0, "topography": "F", "total_area": 43125, "total_livable_area": 626880, "type_heater": null, "unfinished": null, "unit": null, "utility": null, "view_type": "I", "year_built": 1969.0, "year_built_estimate": null, "zip_code": "19102", "pin": 1001087164, "building_code_new": "243", "building_code_description_new": "OFFICE BLDNG - High Rise", "objectid": 587199200, "FID": 0.0, "CPI": 254.694, "I676_NS": "south" }, "geometry": { "type": "Point", "coordinates": [ 2692532.325835618656129, 237432.768728370923782 ] } },
{ "type": "Feature", "properties": { "basements": null, "beginning_point": "NEC 11TH ST", "zoning": "CMX4", "location": "1027-31 ARCH ST", "adj_sale_price": 13.475413471018424, "sale_price": 10, "book_and_page": "53174946", "building_code": "590  ", "building_code_description": "RES CONDO 5+ STY MASONRY", "category_code": "1 ", "category_code_description": "SINGLE FAMILY", "census_tract": "2  ", "central_air": null, "cross_reference": null, "date_exterior_condition": null, "depth": 0, "exempt_building": 100000.0, "exempt_land": 0.0, "exterior_condition": "3", "fireplaces": 0, "frontage": 0.0, "fuel": null, "garage_spaces": 0, "garage_type": null, "general_construction": "A ", "geographic_ward": "5 ", "homestead_exemption": 100000, "house_extension": "31", "house_number": "1027 ", "interior_condition": "3", "mailing_address_1": "604", "mailing_care_of": null, "mailing_city_state": "PHILADELPHIA PA", "mailing_street": "1027-31 ARCH ST", "mailing_zip": "19107-2307", "market_value": 387400, "market_value_date": null, "number_of_bathrooms": 0, "number_of_bedrooms": 0, "number_of_rooms": null, "number_stories": 1, "off_street_open": 247, "owner_1": "DROBNAK ALLISON", "owner_2": null, "parcel_number": "888030560", "parcel_shape": "E", "quality_grade": "B ", "registry_number": "001N190487", "sale_date": "2016-12-21", "separate_utilities": null, "sewer": null, "site_type": null, "street_code": "13000", "street_designation": "ST  ", "street_direction": null, "street_name": "ARCH", "suffix": null, "taxable_building": 233300.0, "taxable_land": 54100.0, "topography": null, "total_area": 0, "total_livable_area": 962, "type_heater": null, "unfinished": null, "unit": "604", "utility": null, "view_type": "I", "year_built": 1900.0, "year_built_estimate": "Y", "zip_code": "19107", "pin": 1001069606, "building_code_new": "08", "building_code_description_new": null, "objectid": 587200452, "FID": 0.0, "CPI": 252.557, "I676_NS": "south" }, "geometry": { "type": "Point", "coordinates": [ 2695184.235054366756231, 236788.181342460738961 ] } },
{ "type": "Feature", "properties": { "basements": "D", "beginning_point": "198' W 10TH ST", "zoning": "RM1", "location": "1025 SPRING ST", "adj_sale_price": 13.475413471018424, "sale_price": 10, "book_and_page": "53096746", "building_code": "O60  ", "building_code_description": "ROW 3.5 STY MASONRY", "category_code": "1 ", "category_code_description": "SINGLE FAMILY", "census_tract": "2  ", "central_air": "N", "cross_reference": null, "date_exterior_condition": null, "depth": 49, "exempt_building": 0.0, "exempt_land": 0.0, "exterior_condition": "3", "fireplaces": 0, "frontage": 20.0, "fuel": null, "garage_spaces": 0, "garage_type": null, "general_construction": "A ", "geographic_ward": "5 ", "homestead_exemption": 0, "house_extension": null, "house_number": "1025 ", "interior_condition": "5", "mailing_address_1": null, "mailing_care_of": null, "mailing_city_state": "PHILADELPHIA PA", "mailing_street": "11801 AUDUBON AVE", "mailing_zip": "19116", "market_value": 589000, "market_value_date": null, "number_of_bathrooms": 2, "number_of_bedrooms": 5, "number_of_rooms": null, "number_stories": 3, "off_street_open": 328, "owner_1": "LEE RACHEL LYNN", "owner_2": "LEE RYAN RICHARD", "parcel_number": "054015200", "parcel_shape": "E", "quality_grade": "B ", "registry_number": "002N090356", "sale_date": "2016-08-09", "separate_utilities": null, "sewer": null, "site_type": null, "street_code": "73740", "street_designation": "ST  ", "street_direction": null, "street_name": "SPRING", "suffix": null, "taxable_building": 471200.0, "taxable_land": 117800.0, "topography": "F", "total_area": 987, "total_livable_area": 2020, "type_heater": "B", "unfinished": null, "unit": "A", "utility": null, "view_type": "I", "year_built": 1925.0, "year_built_estimate": "Y", "zip_code": "19107", "pin": 1001493738, "building_code_new": "22", "building_code_description_new": "ROW TYPICAL", "objectid": 587212299, "FID": 0.0, "CPI": 252.557, "I676_NS": "south" }, "geometry": { "type": "Point", "coordinates": [ 2695448.538718773517758, 237586.776885672297794 ] } },
{ "type": "Feature", "properties": { "basements": null, "beginning_point": "NEX BROAD & ARCH STREET", "zoning": "CMX5", "location": "101-09 N BROAD ST", "adj_sale_price": 13.475413471018424, "sale_price": 10, "book_and_page": "53092757", "building_code": "FL1  ", "building_code_description": "HOTEL 15-19 STY MAS+OTHER", "category_code": "9 ", "category_code_description": "HOTEL", "census_tract": "2  ", "central_air": null, "cross_reference": null, "date_exterior_condition": null, "depth": 79, "exempt_building": 13395658.0, "exempt_land": 0.0, "exterior_condition": "4", "fireplaces": null, "frontage": 135.0, "fuel": null, "garage_spaces": null, "garage_type": null, "general_construction": "B ", "geographic_ward": "5 ", "homestead_exemption": 0, "house_extension": "9 ", "house_number": "101  ", "interior_condition": "4", "mailing_address_1": "SUITE 200", "mailing_care_of": null, "mailing_city_state": "NEW ORLEANS LA", "mailing_street": "812 GRAVIER ST", "mailing_zip": "70112", "market_value": 24991900, "market_value_date": null, "number_of_bathrooms": null, "number_of_bedrooms": null, "number_of_rooms": null, "number_stories": 15, "off_street_open": 304, "owner_1": "URBAN PHILA LIBERTY", "owner_2": "BUILDING LLC", "parcel_number": "883704850", "parcel_shape": "A", "quality_grade": "C+", "registry_number": "001N210163", "sale_date": "2016-07-28", "separate_utilities": null, "sewer": null, "site_type": null, "street_code": "19140", "street_designation": "ST  ", "street_direction": "N", "street_name": "BROAD", "suffix": null, "taxable_building": 6597862.0, "taxable_land": 4998380.0, "topography": "F", "total_area": 9805, "total_livable_area": 93428, "type_heater": null, "unfinished": null, "unit": null, "utility": null, "view_type": null, "year_built": 1916.0, "year_built_estimate": null, "zip_code": "19107", "pin": 1001103039, "building_code_new": "213", "building_code_description_new": "HOTEL - HI RISE", "objectid": 587212876, "FID": 0.0, "CPI": 252.557, "I676_NS": "south" }, "geometry": { "type": "Point", "coordinates": [ 2693716.543814519420266, 236960.146200920251431 ] } },
{ "type": "Feature", "properties": { "basements": null, "beginning_point": "25' W MARVINE ST", "zoning": "CMX4", "location": "1123 RACE ST", "adj_sale_price": 14.0187751268701, "sale_price": 10, "book_and_page": "52532639", "building_code": "Y50  ", "building_code_description": "STR/OFF+APT 3 STY MASONRY", "category_code": "3 ", "category_code_description": "MIXED USE", "census_tract": "2  ", "central_air": null, "cross_reference": null, "date_exterior_condition": null, "depth": 62, "exempt_building": 0.0, "exempt_land": 0.0, "exterior_condition": "5", "fireplaces": null, "frontage": 20.0, "fuel": null, "garage_spaces": null, "garage_type": null, "general_construction": "F ", "geographic_ward": "5 ", "homestead_exemption": 0, "house_extension": null, "house_number": "1123 ", "interior_condition": "5", "mailing_address_1": null, "mailing_care_of": null, "mailing_city_state": "NEW CASTLE DE", "mailing_street": "311 EUGENIA MDWS RD BAYVI", "mailing_zip": "19720", "market_value": 826800, "market_value_date": null, "number_of_bathrooms": null, "number_of_bedrooms": null, "number_of_rooms": null, "number_stories": null, "off_street_open": 55, "owner_1": "WANG JAMES", "owner_2": "WANG EUGENE", "parcel_number": "871060350", "parcel_shape": "E", "quality_grade": "C ", "registry_number": "002N090125", "sale_date": "2012-09-07", "separate_utilities": "B", "sewer": null, "site_type": null, "street_code": "67120", "street_designation": "ST  ", "street_direction": null, "street_name": "RACE", "suffix": null, "taxable_building": 661440.0, "taxable_land": 165360.0, "topography": "F", "total_area": 1240, "total_livable_area": 3720, "type_heater": null, "unfinished": null, "unit": null, "utility": null, "view_type": "I", "year_built": 1925.0, "year_built_estimate": null, "zip_code": "19107", "pin": 1001438034, "building_code_new": "819", "building_code_description_new": "TWIN MIXED-COM/RES-BLT AS COM", "objectid": 587279709, "FID": 0.0, "CPI": 242.768, "I676_NS": "south" }, "geometry": { "type": "Point", "coordinates": [ 2694931.855399545747787, 237436.397479505045339 ] } },
{ "type": "Feature", "properties": { "basements": null, "beginning_point": "48'N CHERRY ST", "zoning": "CMX4", "location": "135 N 9TH ST", "adj_sale_price": 14.104879686347322, "sale_price": 10, "book_and_page": "52441482", "building_code": "Y70  ", "building_code_description": "STR/OFF+APT 4 STY MASONRY", "category_code": "3 ", "category_code_description": "MIXED USE", "census_tract": "2  ", "central_air": null, "cross_reference": null, "date_exterior_condition": null, "depth": 60, "exempt_building": 0.0, "exempt_land": 0.0, "exterior_condition": "4", "fireplaces": null, "frontage": 21.0, "fuel": null, "garage_spaces": null, "garage_type": null, "general_construction": "A ", "geographic_ward": "5 ", "homestead_exemption": 0, "house_extension": null, "house_number": "135  ", "interior_condition": "4", "mailing_address_1": null, "mailing_care_of": "CHAN KENNETH H", "mailing_city_state": "SEWELL NJ", "mailing_street": "10 COTSWOLD WAY", "mailing_zip": "08080", "market_value": 790400, "market_value_date": null, "number_of_bathrooms": null, "number_of_bedrooms": null, "number_of_rooms": null, "number_stories": null, "off_street_open": 608, "owner_1": "CHAN KENNETH K H", "owner_2": null, "parcel_number": "871004050", "parcel_shape": "E", "quality_grade": "C ", "registry_number": "001N180316", "sale_date": "2012-01-26", "separate_utilities": null, "sewer": null, "site_type": null, "street_code": "87970", "street_designation": "ST  ", "street_direction": "N", "street_name": "9TH", "suffix": null, "taxable_building": 632320.0, "taxable_land": 158080.0, "topography": "F", "total_area": 1230, "total_livable_area": 3200, "type_heater": null, "unfinished": null, "unit": null, "utility": null, "view_type": "I", "year_built": 1990.0, "year_built_estimate": null, "zip_code": "19107", "pin": 1001606888, "building_code_new": "821", "building_code_description_new": "ROW MIXED-COM/RES-BLT AS COM", "objectid": 587287792, "FID": 0.0, "CPI": 241.286, "I676_NS": "south" }, "geometry": { "type": "Point", "coordinates": [ 2696100.309957337100059, 236957.958280226856004 ] } },
{ "type": "Feature", "properties": { "basements": null, "beginning_point": "135' N ARCH ST", "zoning": "CMX4", "location": "111 N BROAD ST", "adj_sale_price": 14.394090628409986, "sale_price": 10, "book_and_page": "52336333", "building_code": "FM1  ", "building_code_description": "HOTEL 20+ STY MASONRY+OTH", "category_code": "2 ", "category_code_description": "MULTI FAMILY", "census_tract": "2  ", "central_air": null, "cross_reference": null, "date_exterior_condition": null, "depth": 528, "exempt_building": 171209684.0, "exempt_land": 69930716.0, "exterior_condition": "1", "fireplaces": null, "frontage": 478.0, "fuel": null, "garage_spaces": null, "garage_type": null, "general_construction": "F ", "geographic_ward": "5 ", "homestead_exemption": 0, "house_extension": null, "house_number": "111  ", "interior_condition": "1", "mailing_address_1": null, "mailing_care_of": null, "mailing_city_state": "HARRISBURG PA", "mailing_street": "515 N OFFICE BLDG", "mailing_zip": "17125", "market_value": 241140400, "market_value_date": null, "number_of_bathrooms": null, "number_of_bedrooms": null, "number_of_rooms": null, "number_stories": null, "off_street_open": 304, "owner_1": "COMMONWEALTH OF PENNSYLVA", "owner_2": null, "parcel_number": "781020810", "parcel_shape": "E", "quality_grade": "B ", "registry_number": "001N210162", "sale_date": "2011-03-30", "separate_utilities": null, "sewer": null, "site_type": null, "street_code": "19140", "street_designation": "ST  ", "street_direction": "N", "street_name": "BROAD", "suffix": null, "taxable_building": 0.0, "taxable_land": 0.0, "topography": null, "total_area": 252373, "total_livable_area": 624696, "type_heater": null, "unfinished": null, "unit": null, "utility": null, "view_type": "0", "year_built": 2016.0, "year_built_estimate": null, "zip_code": "19107", "pin": 1001103041, "building_code_new": "831", "building_code_description_new": "CONVENTION CENTER", "objectid": 587297487, "FID": 0.0, "CPI": 236.438, "I676_NS": "south" }, "geometry": { "type": "Point", "coordinates": [ 2693982.829216661397368, 237176.045549236150691 ] } },
{ "type": "Feature", "properties": { "basements": null, "beginning_point": "SWC VINE", "zoning": "CMX4", "location": "1100 VINE ST", "adj_sale_price": 14.551024421945547, "sale_price": 10, "book_and_page": "52155517", "building_code": "590  ", "building_code_description": "RES CONDO 5+ STY MASONRY", "category_code": "1 ", "category_code_description": "SINGLE FAMILY", "census_tract": "2  ", "central_air": null, "cross_reference": null, "date_exterior_condition": null, "depth": 0, "exempt_building": 100000.0, "exempt_land": 0.0, "exterior_condition": "4", "fireplaces": 0, "frontage": 0.0, "fuel": null, "garage_spaces": 0, "garage_type": null, "general_construction": "A ", "geographic_ward": "5 ", "homestead_exemption": 100000, "house_extension": null, "house_number": "1100 ", "interior_condition": "4", "mailing_address_1": "510", "mailing_care_of": null, "mailing_city_state": "PHILADELPHIA PA", "mailing_street": "1100 VINE ST", "mailing_zip": "19107-1703", "market_value": 282100, "market_value_date": null, "number_of_bathrooms": 0, "number_of_bedrooms": 0, "number_of_rooms": null, "number_stories": 1, "off_street_open": 208, "owner_1": "JUNG HARRY G", "owner_2": "MOY ELLEN M", "parcel_number": "888071764", "parcel_shape": "E", "quality_grade": "B ", "registry_number": "002N090459", "sale_date": "2009-12-10", "separate_utilities": null, "sewer": null, "site_type": null, "street_code": "80120", "street_designation": "ST  ", "street_direction": null, "street_name": "VINE", "suffix": null, "taxable_building": 145500.0, "taxable_land": 36600.0, "topography": null, "total_area": 0, "total_livable_area": 889, "type_heater": null, "unfinished": null, "unit": "510", "utility": null, "view_type": "I", "year_built": 1900.0, "year_built_estimate": "Y", "zip_code": "19107", "pin": 1001540840, "building_code_new": "08", "building_code_description_new": null, "objectid": 587312989, "FID": 0.0, "CPI": 233.888, "I676_NS": "south" }, "geometry": { "type": "Point", "coordinates": [ 2695152.370642142370343, 237682.308098735258682 ] } },
{ "type": "Feature", "properties": { "basements": null, "beginning_point": "SWC VINE", "zoning": "CMX4", "location": "1100 VINE ST", "adj_sale_price": 14.601028800405, "sale_price": 10, "book_and_page": "51958159", "building_code": "590  ", "building_code_description": "RES CONDO 5+ STY MASONRY", "category_code": "1 ", "category_code_description": "SINGLE FAMILY", "census_tract": "2  ", "central_air": null, "cross_reference": null, "date_exterior_condition": null, "depth": 0, "exempt_building": 100000.0, "exempt_land": 0.0, "exterior_condition": "4", "fireplaces": 0, "frontage": 0.0, "fuel": null, "garage_spaces": 0, "garage_type": null, "general_construction": "A ", "geographic_ward": "5 ", "homestead_exemption": 100000, "house_extension": null, "house_number": "1100 ", "interior_condition": "4", "mailing_address_1": "802", "mailing_care_of": null, "mailing_city_state": "PHILADELPHIA PA", "mailing_street": "1100 VINE ST", "mailing_zip": "19107-1703", "market_value": 230600, "market_value_date": null, "number_of_bathrooms": 0, "number_of_bedrooms": 0, "number_of_rooms": null, "number_stories": 1, "off_street_open": 208, "owner_1": "LO CHAN M", "owner_2": "LAW KAM C", "parcel_number": "888071832", "parcel_shape": "E", "quality_grade": "B ", "registry_number": "002N090424", "sale_date": "2008-08-25", "separate_utilities": null, "sewer": null, "site_type": null, "street_code": "80120", "street_designation": "ST  ", "street_direction": null, "street_name": "VINE", "suffix": null, "taxable_building": 100700.0, "taxable_land": 29900.0, "topography": null, "total_area": 0, "total_livable_area": 686, "type_heater": null, "unfinished": null, "unit": "802", "utility": null, "view_type": "I", "year_built": 1900.0, "year_built_estimate": "Y", "zip_code": "19107", "pin": 1001540876, "building_code_new": "08", "building_code_description_new": null, "objectid": 587327910, "FID": 0.0, "CPI": 233.087, "I676_NS": "south" }, "geometry": { "type": "Point", "coordinates": [ 2695152.370642142370343, 237682.308098735258682 ] } }
]
}
